#dP2020  7 26  0  0  0.00000000      96 __u+U ITR00 FIT  IAC
## 2116      0.00000000   900.00000000 59056 0.0000000000000
+  116   C01C02C03C04C05C06C07C08C09C10C11C12C13C14C16C19C20
+        C21C22C23C24C25C26C27C28C29C30C32C33C34C35C36C37C45
+        C46E01E02E03E04E05E07E08E09E11E12E13E14E15E18E19E21
+        E24E25E26E27E30E31E33E36G01G02G03G04G05G06G07G08G09
+        G10G11G12G13G14G15G16G17G18G19G20G21G22G23G24G25G26
+        G27G28G29G30G31G32J01J02J03R01R02R03R04R05R07R08R09
+        R11R12R13R14R15R16R17R18R19R20R21R23R24R26  0  0  0
++        13 13 13 13 13  8  8  8  8  8  8  8  8  7  8  8  7
++         8  8  7  8  8  8  7  8  8  7  8  8  8  8  8  8  0
++         9  5  4  5  5  4  4  4  4  5  5  5  5  5  5  5  5
++         4  4  5  5  4  5  4  4  3  3  3  3  3  3  3  3  3
++         3  3  4  3  4  3  4  4  3  4  3  3  3  4  3  3  3
++         3  3  3  3  4  3  8  8  8  6  5  5  6  5  5  5  5
++         5  5  6  5  6  6  5  5  6  6  5  6  5  8  0  0  0
%c M  cc GPS ccc cccc cccc cccc cccc ccccc ccccc ccccc ccccc
%c cc cc ccc ccc cccc cccc cccc cccc ccccc ccccc ccccc ccccc
%f  0.0000000  0.000000000  0.00000000000  0.000000000000000
%f  0.0000000  0.000000000  0.00000000000  0.000000000000000
%i    0    0    0    0      0      0      0      0         0
%i    0    0    0    0      0      0      0      0         0
/* INFORMATION & ANALYSIS CENTER (IAC)            RAPID DATA
/* S/V CLOCKS ARE ALIGNED TO GNSS TIME                      
/* G:C1WC2W R:C1PC2P E:C1XC5X C:C2IC6I J:C1CC2S             
/* PCV:IGS14_2113 OL/AL:FES2004  NONE     YN ORB:CoN CLK:CoN
*  2020 07 26 12 15  0.00000000
PC01 -34379.220260  24391.745455   -288.251648   -290.856922
PC02   4530.501554  41937.745059    702.093695    189.920759
PC03 -14832.572238  39504.806347    135.250938    818.076648
PC04 -39649.277016  14374.724888   -550.346928    -79.128875
PC05  21895.643401  36033.185047   1016.941243     56.949565
PC06  -5698.220813  29460.063213  30203.025180    794.729349
PC07 -21301.785186  25217.765649 -26267.329667    129.417200
PC08 -17456.662242  38095.622848  -2126.335870   -401.450956
PC09   5541.324011  36269.222424  21379.491133    701.885724
PC10  -7092.743335  26896.597513 -31570.204842   -227.031827
PC11 -16234.892829   -520.623460 -22648.010250   -515.237952
PC12 -16493.046812 -19030.447582 -12032.481756    445.284638
PC13  -7896.836535  39674.098938  11421.382484    563.014775
PC14 -27303.451022    943.339734   5876.435921    724.746542
PC16  -3094.570463  30317.613547  29304.686557   -595.481512
PC19  22959.328317  -7199.605530 -14090.935773    487.409898
PC20  27367.339736   4817.750660   2366.740198   -837.176966
PC21 -15638.321699 -14453.401783 -18031.854885   -661.628890
PC22   5074.840893 -15324.001234 -22756.080102   -768.880660
PC23 -10649.491435  24232.315698  -8837.862272   -844.141598
PC24 -18261.321999   -859.853278  21082.411440   -756.378424
PC25 -20045.970043  17524.161519   8330.683852   -699.369474
PC26  -6320.053448 -16966.949812  21241.870937    768.908050
PC27  12482.857377  24748.666532   3279.058307    370.874164
PC28   -430.679328  24261.270703 -13774.488356   -190.836082
PC29  12679.226945 -10115.215427  22698.234018    261.218424
PC30  18469.120595  10391.795312  18158.949191    352.006189
PC32  15697.506111  14368.209894  18059.397410   -877.996589
PC33 -22995.485966   7305.561274  14047.604870   -796.184985
PC34 -18456.584543  -9865.550159 -18460.810892   -892.716595
PC35   -206.863173 -24177.473243  13902.340397   -732.098296
PC36  20485.604009 -16909.789195  -8506.344087   -879.975804
PC37   5350.631339  17565.561296 -20984.725723   -879.658822
PC45      0.000000      0.000000      0.000000 999999.999999
PC46  18453.749702    102.558770 -20924.310073    717.884452
PE01 -27026.043449  11667.868418   3136.280858   -906.303026
PE02  27005.822745 -11741.548142  -3025.720636    149.972210
PE03  22362.150818  -1989.854022 -19278.429032   -324.771298
PE04  -5845.198024  16400.750032  23946.664595   -573.584964
PE05  25987.501858  13788.117515  -3235.865967   -360.017217
PE07 -14425.389481 -21373.571401 -14537.771618   -414.115287
PE08   5397.267131 -16450.189638 -24004.727208   6144.167354
PE09  14661.397950  21200.635825  14542.465870   5984.291488
PE11   5271.841185  27577.898220   9379.909251   4359.963927
PE12  -7447.396547  26869.705015  -9961.917450   5687.402972
PE13  -5216.662019 -27648.008048  -9194.067957    402.584128
PE14  -9219.444439 -22722.425367   8927.940130  -1097.752333
PE15   7185.495745 -26993.468612   9793.490074    858.603047
PE18  -1575.607646  23774.076449 -19501.457621  -1201.471551
PE19 -23464.862704     96.871491  18053.646325     37.290880
PE21 -22299.249166  -2870.163722  19260.077283   -612.241409
PE24   4069.332755  16306.948519 -24370.355763   5330.790436
PE25  22201.647363   2978.099578 -19336.028469   -514.187846
PE26 -14771.430905 -11643.400867 -22860.504149   2915.963059
PE27  -4476.529915 -16093.095878  24444.159202    169.312079
PE30  16368.976947 -19676.533822  14868.671092   3716.704425
PE31 -15895.907858  19787.391436 -15224.638175   -473.376466
PE33 -15366.296536  10480.628906 -23027.614585   -464.479440
PE36  14550.746068  12069.236190  22775.325384    529.103633
PG01  14187.839924 -18707.625254  11852.362442     29.034724
PG02 -14722.573608  -2612.042711 -21314.735412   -492.951325
PG03  20795.594951 -12454.381718 -10809.497575   -251.303840
PG04   9623.239502 -12005.938089 -21635.317088   -117.074164
PG05 -25380.276066    651.645440  -8283.508451    -17.464958
PG06  -8477.685169 -16242.986288 -19161.837837   -308.016749
PG07   4640.086767 -25520.074701   4629.210172   -335.969106
PG08  17650.650760  -1353.185627  19890.983170    -42.283010
PG09  -1815.621365 -19878.324798 -17564.407957   -260.047035
PG10   9124.865517  13033.571470  21391.429562   -410.311247
PG11  13479.468119 -11006.604357  19655.263741   -210.425290
PG12 -21812.106472  10763.230484 -10719.990364     88.788208
PG13 -19453.543627  -8002.149534  16158.994064     30.120386
PG14  18308.680536  18957.077147  -3665.351378      4.261174
PG15 -17618.417146   3850.361187  19288.898620   -214.933681
PG16  26280.530371     67.328460  -5464.724899   -187.579643
PG17 -14152.312445 -22066.208311   4837.486304    301.664520
PG18  -5146.067774  25628.403105   4594.179200    255.492541
PG19 -17867.102678 -19368.515372  -3832.815853   -126.914521
PG20  -3368.414828  17033.782300  19960.483535    527.205244
PG21  10180.775266  16343.857815  19189.683509     28.251378
PG22  24362.256209  -9988.981068  -2614.863472   -769.252400
PG23  -1847.854447  15787.436906  21248.846977     17.777407
PG24 -14493.530025  17097.891122  13757.093684    -16.203282
PG25 -12261.638119  15509.812962 -17847.607113     27.706619
PG26  19551.023173   7168.779189 -16646.999948    250.178519
PG27  21084.505208   9515.535811  13201.772924   -355.470491
PG28  -9386.727728 -13372.282898  21492.976125    695.873250
PG29  -2981.304851  17316.679013 -19949.964044   -158.789905
PG30  -2936.912605 -22489.693296  13691.576937   -269.726959
PG31   9918.585123  14454.048548 -19859.791779    -58.091279
PG32  16137.728903  20879.803177   3749.628672    323.093545
PJ01 -29013.371989  22451.509739  25897.612776   -196.292128
PJ02 -36000.548066  21894.327812   2119.873393     -1.663919
PJ03 -19273.033130  23913.149975 -24253.385683     -0.198663
PR01 -24675.728243  -5814.833228   2905.559489     65.105320
PR02 -14331.130433   5518.589277  20391.276200    438.047115
PR03   3747.706837  12225.191539  22122.720975     19.242151
PR04  19554.405727  11783.797948  11406.986337     57.642432
PR05  24362.842112   4903.689074  -5784.864621     54.744285
PR07  -4318.453716 -12290.907575 -21885.186848    -38.769666
PR08 -19565.273951 -11813.449109 -11258.135285    -53.701338
PR09  16710.724371 -18649.272889   4673.690180    145.488150
PR11  -8607.155414  -7203.635736  22927.386183    -31.857855
PR12 -18612.142216   6762.798512  16101.211798    150.269327
PR13 -18475.292923  17591.296344   -335.925857    -41.663126
PR14  -7524.910350  17794.901200 -16649.041921     53.765457
PR15   7677.625271   7819.522413 -23008.366951    106.947142
PR16  18826.929230  -7656.057550 -15507.687289     -4.845336
PR17   2329.748797  24547.646188  -6444.807463    344.406480
PR18   9381.886385  21297.801049  10507.096470     43.621174
PR19  11228.828278   7414.673631  21661.458430   -104.041674
PR20   6762.138239 -13539.391780  20521.876663   -417.710000
PR21  -2802.116190 -24775.103106   5457.468721   -140.730720
PR23 -10540.386197    473.582450 -23238.223938    321.135683
PR24  -6747.475702  14360.032516 -19957.497520      7.588796
PR26   8425.090122  -8783.185175  22428.038195   -364.532679
EOF
